H1 CPF  1  SGF 2022  2  3  2  5341 larets    
H2  0304206 5557    27944 2022  2  2  0  0  0 2022  2  7 23 57  0   180 1 1  0 0 0
H9
10 0 59614  82800.00000  0  -3613250.143  -2550701.386  -5517010.438
10 0 59614  82980.00000  0  -2912158.101  -1628256.868  -6232860.728
10 0 59614  83160.00000  0  -2081120.222   -667092.577  -6721858.754
10 0 59614  83340.00000  0  -1149658.380    295033.114  -6966258.472
10 0 59614  83520.00000  0   -151870.519   1221172.825  -6957110.629
10 0 59614  83700.00000  0    874793.289   2076582.444  -6694575.529
10 0 59614  83880.00000  0   1890906.539   2830007.389  -6187947.315
10 0 59614  84060.00000  0   2856560.711   3454827.574  -5455375.888
10 0 59614  84240.00000  0   3732925.420   3930018.692  -4523282.105
10 0 59614  84420.00000  0   4483824.257   4240898.921  -3425475.083
10 0 59614  84600.00000  0   5077265.884   4379625.868  -2201975.426
10 0 59614  84780.00000  0   5486852.589   4345410.560   -897571.548
10 0 59614  84960.00000  0   5692991.932   4144431.744    439840.370
10 0 59614  85140.00000  0   5683842.089   3789449.069   1761064.686
10 0 59614  85320.00000  0   5455938.196   3299128.449   3017483.166
10 0 59614  85500.00000  0   5014456.427   2697114.182   4162912.682
10 0 59614  85680.00000  0   4373101.159   2010899.819   5155351.069
10 0 59614  85860.00000  0   3553633.855   1270564.341   5958531.069
10 0 59614  86040.00000  0   2585068.729    507440.849   6543231.346
10 0 59614  86220.00000  0   1502584.809   -247217.609   6888290.629
10 0 59615      0.00000  0    346212.029   -963513.151   6981322.866
10 0 59615    180.00000  0   -840669.690  -1614080.783   6819118.989
10 0 59615    360.00000  0  -2012960.322  -2175125.163   6407726.758
10 0 59615    540.00000  0  -3125540.668  -2627281.284   5762219.256
10 0 59615    720.00000  0  -4135001.513  -2956279.922   4906171.029
10 0 59615    900.00000  0  -5001350.751  -3153399.723   3870828.546
10 0 59615   1080.00000  0  -5689617.611  -3215680.855   2693995.619
10 0 59615   1260.00000  0  -6171293.361  -3145895.658   1418673.115
10 0 59615   1440.00000  0  -6425544.028  -2952277.572     91484.847
10 0 59615   1620.00000  0  -6440125.590  -2648013.120  -1239050.658
10 0 59615   1800.00000  0  -6211953.407  -2250523.270  -2524329.537
10 0 59615   1980.00000  0  -5747289.637  -1780571.313  -3717469.539
10 0 59615   2160.00000  0  -5061549.951  -1261247.829  -4775032.576
10 0 59615   2340.00000  0  -4178745.358   -716885.210  -5658596.496
10 0 59615   2520.00000  0  -3130590.302   -171954.230  -6336118.249
10 0 59615   2700.00000  0  -1955324.984    350004.402  -6783043.399
10 0 59615   2880.00000  0   -696307.614    827366.517  -6983141.055
10 0 59615   3060.00000  0    599570.435   1241295.284  -6929053.017
10 0 59615   3240.00000  0   1883595.939   1576470.367  -6622557.050
10 0 59615   3420.00000  0   3107036.151   1821654.682  -6074540.001
10 0 59615   3600.00000  0   4222975.537   1970079.514  -5304661.742
10 0 59615   3780.00000  0   5188124.347   2019632.941  -4340718.265
10 0 59615   3960.00000  0   5964542.345   1972845.496  -3217704.724
10 0 59615   4140.00000  0   6521199.326   1836666.776  -1976590.556
10 0 59615   4320.00000  0   6835299.694   1622040.201   -662837.579
10 0 59615   4500.00000  0   6893291.061   1343289.489    675293.393
10 0 59615   4680.00000  0   6691490.493   1017345.906   1988571.391
10 0 59615   4860.00000  0   6236296.544    662857.683   3228674.486
10 0 59615   5040.00000  0   5543965.687    299227.002   4350034.631
10 0 59615   5220.00000  0   4639968.789    -54368.460   5311553.300
10 0 59615   5400.00000  0   3557974.184   -379917.060   6078117.181
10 0 59615   5580.00000  0   2338511.175   -661432.203   6621857.008
10 0 59615   5760.00000  0   1027391.152   -885686.756   6923114.251
10 0 59615   5940.00000  0   -326050.464  -1042798.790   6971102.412
10 0 59615   6120.00000  0  -1670824.425  -1126646.200   6764247.060
10 0 59615   6300.00000  0  -2956200.149  -1135096.770   6310210.157
10 0 59615   6480.00000  0  -4133604.669  -1070046.579   5625610.831
10 0 59615   6660.00000  0  -5158460.976   -937271.294   4735446.318
10 0 59615   6840.00000  0  -5991898.558   -746095.641   3672210.240
10 0 59615   7020.00000  0  -6602261.758   -508891.355   2474731.702
10 0 59615   7200.00000  0  -6966357.480   -240425.258   1186773.864
10 0 59615   7380.00000  0  -7070383.889     42912.592   -144573.092
10 0 59615   7560.00000  0  -6910480.279    323962.474  -1470641.781
10 0 59615   7740.00000  0  -6492868.472    585687.408  -2742999.979
10 0 59615   7920.00000  0  -5833586.540    812057.054  -3915246.226
10 0 59615   8100.00000  0  -4957823.312    988879.700  -4944717.811
10 0 59615   8280.00000  0  -3898893.714   1104538.937  -5794028.717
10 0 59615   8460.00000  0  -2696919.101   1150599.374  -6432386.701
10 0 59615   8640.00000  0  -1397278.272   1122255.924  -6836655.394
10 0 59615   8820.00000  0    -48892.144   1018614.000  -6992139.908
10 0 59615   9000.00000  0   1297592.057    842789.258  -6893084.614
10 0 59615   9180.00000  0   2591667.711    601823.921  -6542889.608
10 0 59615   9360.00000  0   3784841.809    306419.321  -5954025.959
10 0 59615   9540.00000  0   4832448.193    -29508.747  -5147645.342
10 0 59615   9720.00000  0   5695345.872   -389439.603  -4152891.281
10 0 59615   9900.00000  0   6341444.260   -755002.126  -3005909.819
10 0 59615  10080.00000  0   6746980.614  -1106846.332  -1748576.310
10 0 59615  10260.00000  0   6897485.148  -1425593.105   -426971.680
10 0 59615  10440.00000  0   6788371.631  -1692812.601    910337.983
10 0 59615  10620.00000  0   6425113.889  -1891980.848   2214145.319
10 0 59615  10800.00000  0   5822989.778  -2009361.267   3436483.987
10 0 59615  10980.00000  0   5006403.743  -2034760.040   4532456.477
10 0 59615  11160.00000  0   4007831.805  -1962116.130   5461917.023
10 0 59615  11340.00000  0   2866456.788  -1789897.108   6190946.116
10 0 59615  11520.00000  0   1626559.985  -1521286.805   6693062.048
10 0 59615  11700.00000  0    335753.916  -1164159.503   6950134.379
10 0 59615  11880.00000  0   -956871.049   -730843.108   6952985.888
10 0 59615  12060.00000  0  -2202613.489   -237682.587   6701676.479
10 0 59615  12240.00000  0  -3354982.138    295580.220   6205476.977
10 0 59615  12420.00000  0  -4371421.503    846590.952   5482537.384
10 0 59615  12600.00000  0  -5214891.303   1391304.355   4559250.689
10 0 59615  12780.00000  0  -5855241.801   1905012.426   3469320.946
10 0 59615  12960.00000  0  -6270327.219   2363438.322   2252557.697
10 0 59615  13140.00000  0  -6446811.482   2743847.772    953434.129
10 0 59615  13320.00000  0  -6380626.159   3026126.731   -380549.349
10 0 59615  13500.00000  0  -6077047.632   3193767.429  -1700630.762
10 0 59615  13680.00000  0  -5550390.399   3234711.932  -2958603.849
10 0 59615  13860.00000  0  -4823328.811   3142009.282  -4108608.661
10 0 59615  14040.00000  0  -3925887.019   2914252.054  -5108810.877
10 0 59615  14220.00000  0  -2894158.526   2555775.683  -5922901.533
10 0 59615  14400.00000  0  -1768827.312   2076617.953  -6521369.835
10 0 59615  14580.00000  0   -593552.966   1492243.066  -6882520.582
10 0 59615  14760.00000  0    586711.920    823042.503  -6993208.855
10 0 59615  14940.00000  0   1727411.945     93634.143  -6849291.506
10 0 59615  15120.00000  0   2786046.017   -668024.394  -6455788.334
10 0 59615  15300.00000  0   3723736.828  -1431684.132  -5826740.473
10 0 59615  15480.00000  0   4506665.963  -2165982.631  -4984769.166
10 0 59615  15660.00000  0   5107331.014  -2839721.191  -3960334.541
10 0 59615  15840.00000  0   5505570.956  -3423192.685  -2790693.848
10 0 59615  16020.00000  0   5689312.321  -3889499.656  -1518581.159
10 0 59615  16200.00000  0   5654990.994  -4215799.367   -190644.103
10 0 59615  16380.00000  0   5407618.071  -4384410.598   1144303.382
10 0 59615  16560.00000  0   4960476.062  -4383718.082   2437139.554
10 0 59615  16740.00000  0   4334455.153  -4208816.281   3640313.969
10 0 59615  16920.00000  0   3557072.033  -3861860.208   4709652.292
10 0 59615  17100.00000  0   2661225.436  -3352110.619   5606009.856
10 0 59615  17280.00000  0   1683758.350  -2695671.457   6296702.354
10 0 59615  17460.00000  0    663903.324  -1914941.439   6756665.516
10 0 59615  17640.00000  0   -358316.222  -1037811.872   6969312.868
10 0 59615  17820.00000  0  -1343660.717    -96644.821   6927081.876
10 0 59615  18000.00000  0  -2255171.678    872931.168   6631665.935
10 0 59615  18180.00000  0  -3059546.478   1833367.238   6093933.675
10 0 59615  18360.00000  0  -3728349.271   2746639.843   5333540.691
10 0 59615  18540.00000  0  -4239023.057   3575751.645   4378241.335
10 0 59615  18720.00000  0  -4575667.343   4286233.917   3262908.418
10 0 59615  18900.00000  0  -4729549.031   4847590.735   2028284.873
10 0 59615  19080.00000  0  -4699318.174   5234621.131    719500.983
10 0 59615  19260.00000  0  -4490919.065   5428548.662   -615588.833
10 0 59615  19440.00000  0  -4117200.840   5417904.956  -1928185.927
10 0 59615  19620.00000  0  -3597235.276   5199112.854  -3170370.536
10 0 59615  19800.00000  0  -2955383.987   4776740.075  -4296876.472
10 0 59615  19980.00000  0  -2220168.400   4163413.803  -5266740.677
10 0 59615  20160.00000  0  -1423007.078   3379415.666  -6044762.646
10 0 59615  20340.00000  0   -596881.058   2451981.970  -6602738.572
10 0 59615  20520.00000  0    225018.403   1414335.000  -6920431.938
10 0 59615  20700.00000  0   1010601.958    304492.518  -6986260.716
10 0 59615  20880.00000  0   1730113.856   -836106.299  -6797698.362
10 0 59615  21060.00000  0   2357244.394  -1964120.932  -6361376.196
10 0 59615  21240.00000  0   2870088.657  -3035927.336  -5692889.461
10 0 59615  21420.00000  0   3251927.767  -4009295.220  -4816308.302
10 0 59615  21600.00000  0   3491801.572  -4845071.398  -3763377.178
10 0 59615  21780.00000  0   3584843.078  -5508791.222  -2572422.071
99
